{
    "links": {
        "self": "http://www.neowsapp.com/rest/v1/neo/3826897?api_key=iIulBulltgU6a56xZRHN4H3l9WmuAYTsLGpBGhQ2"
    },
    "id": "3826897",
    "neo_reference_id": "3826897",
    "name": "(2018 QZ)",
    "designation": "2018 QZ",
    "nasa_jpl_url": "http://ssd.jpl.nasa.gov/sbdb.cgi?sstr=3826897",
    "absolute_magnitude_h": 24.3,
    "estimated_diameter": {
        "kilometers": {
            "estimated_diameter_min": 0.0366906138,
            "estimated_diameter_max": 0.0820427065
        },
        "meters": {
            "estimated_diameter_min": 36.6906137531,
            "estimated_diameter_max": 82.0427064882
        },
        "miles": {
            "estimated_diameter_min": 0.0227984834,
            "estimated_diameter_max": 0.0509789586
        },
        "feet": {
            "estimated_diameter_min": 120.3760332259,
            "estimated_diameter_max": 269.1689931548
        }
    },
    "is_potentially_hazardous_asteroid": false,
    "close_approach_data": [
        {
            "close_approach_date": "2018-08-19",
            "close_approach_date_full": "2018-Aug-19 05:32",
            "epoch_date_close_approach": 1534656720000,
            "relative_velocity": {
                "kilometers_per_second": "9.5075706927",
                "kilometers_per_hour": "34227.2544937276",
                "miles_per_hour": "21267.4848825053"
            },
            "miss_distance": {
                "astronomical": "0.0169792397",
                "lunar": "6.6049242433",
                "kilometers": "2540058.093339439",
                "miles": "1578318.9115806982"
            },
            "orbiting_body": "Earth"
        }
    ],
    "orbital_data": {
        "orbit_id": "8",
        "orbit_determination_date": "2019-01-19 07:17:18",
        "first_observation_date": "2018-08-20",
        "last_observation_date": "2018-09-19",
        "data_arc_in_days": 30,
        "observations_used": 42,
        "orbit_uncertainty": "7",
        "minimum_orbit_intersection": ".0131691",
        "jupiter_tisserand_invariant": "3.482",
        "epoch_osculation": "2459000.5",
        "eccentricity": ".5406833816886618",
        "semi_major_axis": "2.160212748262055",
        "inclination": "8.172263459876014",
        "ascending_node_longitude": "319.8982604765303",
        "orbital_period": "1159.693475772667",
        "perihelion_distance": ".9922216143647693",
        "perihelion_argument": "349.9358278031719",
        "aphelion_distance": "3.328203882159341",
        "perihelion_time": "2459496.741711516258",
        "mean_anomaly": "205.9532455101327",
        "mean_motion": ".3104268563381745",
        "equinox": "J2000",
        "orbit_class": {
            "orbit_class_type": "APO",
            "orbit_class_description": "Near-Earth asteroid orbits which cross the Earth’s orbit similar to that of 1862 Apollo",
            "orbit_class_range": "a (semi-major axis) > 1.0 AU; q (perihelion) < 1.017 AU"
        }
    },
    "is_sentry_object": false
}